[
{
  "model": "blog.country",
  "pk": 3,
  "fields": {
    "name": "인도네시아(Indonesia)",
    "slug": "id",
    "iso_a2": "ID",
    "iso_a3": "IDN",
    "name_ko": "인도네시아",
    "name_en": "Indonesia",
    "aliases": "ID, IDN, Indonesia",
    "short_description": "",
    "flag_image": ""
  }
},
{
  "model": "blog.country",
  "pk": 4,
  "fields": {
    "name": "말레이시아(Malaysia)",
    "slug": "my",
    "iso_a2": "MY",
    "iso_a3": "MYS",
    "name_ko": "말레이시아",
    "name_en": "Malaysia",
    "aliases": "MY, MYS, Malaysia",
    "short_description": "",
    "flag_image": ""
  }
},
{
  "model": "blog.country",
  "pk": 5,
  "fields": {
    "name": "칠레(Chile)",
    "slug": "cl",
    "iso_a2": "CL",
    "iso_a3": "CHL",
    "name_ko": "칠레",
    "name_en": "Chile",
    "aliases": "CHL, CL, Chile",
    "short_description": "",
    "flag_image": ""
  }
},
{
  "model": "blog.country",
  "pk": 6,
  "fields": {
    "name": "볼리비아(Bolivia)",
    "slug": "bo",
    "iso_a2": "BO",
    "iso_a3": "BOL",
    "name_ko": "볼리비아",
    "name_en": "Bolivia",
    "aliases": "BO, BOL, Bolivia",
    "short_description": "",
    "flag_image": ""
  }
},
{
  "model": "blog.country",
  "pk": 7,
  "fields": {
    "name": "페루(Peru)",
    "slug": "pe",
    "iso_a2": "PE",
    "iso_a3": "PER",
    "name_ko": "페루",
    "name_en": "Peru",
    "aliases": "PE, PER, Peru",
    "short_description": "",
    "flag_image": ""
  }
},
{
  "model": "blog.country",
  "pk": 8,
  "fields": {
    "name": "아르헨티나(Argentina)",
    "slug": "ar",
    "iso_a2": "AR",
    "iso_a3": "ARG",
    "name_ko": "아르헨티나",
    "name_en": "Argentina",
    "aliases": "AR, ARG, Argentina",
    "short_description": "",
    "flag_image": ""
  }
},
{
  "model": "blog.country",
  "pk": 9,
  "fields": {
    "name": "Scarborough Reef",
    "slug": "-99",
    "iso_a2": null,
    "iso_a3": "-99",
    "name_ko": "",
    "name_en": "Scarborough Reef",
    "aliases": "-99, Akrotiri Sovereign Base Area, Ashmore and Cartier Islands, Bajo Nuevo Bank (Petrel Is.), Baykonur Cosmodrome, Bir Tawil, Brazilian Island, Clipperton Island, Coral Sea Islands, Cyprus No Mans Area, Dhekelia Sovereign Base Area, France, Indian Ocean Territories, Kosovo, Northern Cyprus, Norway, Scarborough Reef, Serranilla Bank, Siachen Glacier, Somaliland, Southern Patagonian Ice Field, Spratly Islands, US Naval Base Guantanamo Bay",
    "short_description": "",
    "flag_image": ""
  }
},
{
  "model": "blog.country",
  "pk": 10,
  "fields": {
    "name": "키프로스(Cyprus)",
    "slug": "cy",
    "iso_a2": "CY",
    "iso_a3": "CYP",
    "name_ko": "키프로스",
    "name_en": "Cyprus",
    "aliases": "CY, CYP, Cyprus",
    "short_description": "",
    "flag_image": ""
  }
},
{
  "model": "blog.country",
  "pk": 11,
  "fields": {
    "name": "인도(India)",
    "slug": "in",
    "iso_a2": "IN",
    "iso_a3": "IND",
    "name_ko": "인도",
    "name_en": "India",
    "aliases": "IN, IND, India",
    "short_description": "",
    "flag_image": ""
  }
},
{
  "model": "blog.country",
  "pk": 12,
  "fields": {
    "name": "중국(China)",
    "slug": "cn",
    "iso_a2": "CN",
    "iso_a3": "CHN",
    "name_ko": "중국",
    "name_en": "China",
    "aliases": "CHN, CN, China",
    "short_description": "",
    "flag_image": ""
  }
},
{
  "model": "blog.country",
  "pk": 13,
  "fields": {
    "name": "이스라엘(Israel)",
    "slug": "il",
    "iso_a2": "IL",
    "iso_a3": "ISR",
    "name_ko": "이스라엘",
    "name_en": "Israel",
    "aliases": "IL, ISR, Israel",
    "short_description": "",
    "flag_image": ""
  }
},
{
  "model": "blog.country",
  "pk": 14,
  "fields": {
    "name": "팔레스타인 지구(Palestinian Territories)",
    "slug": "ps",
    "iso_a2": "PS",
    "iso_a3": "PSE",
    "name_ko": "팔레스타인 지구",
    "name_en": "Palestine",
    "aliases": "PS, PSE, Palestine",
    "short_description": "",
    "flag_image": ""
  }
},
{
  "model": "blog.country",
  "pk": 15,
  "fields": {
    "name": "레바논(Lebanon)",
    "slug": "lb",
    "iso_a2": "LB",
    "iso_a3": "LBN",
    "name_ko": "레바논",
    "name_en": "Lebanon",
    "aliases": "LB, LBN, Lebanon",
    "short_description": "",
    "flag_image": ""
  }
},
{
  "model": "blog.country",
  "pk": 16,
  "fields": {
    "name": "에티오피아(Ethiopia)",
    "slug": "et",
    "iso_a2": "ET",
    "iso_a3": "ETH",
    "name_ko": "에티오피아",
    "name_en": "Ethiopia",
    "aliases": "ET, ETH, Ethiopia",
    "short_description": "",
    "flag_image": ""
  }
},
{
  "model": "blog.country",
  "pk": 17,
  "fields": {
    "name": "남수단(South Sudan)",
    "slug": "ss",
    "iso_a2": "SS",
    "iso_a3": "SSD",
    "name_ko": "남수단",
    "name_en": "South Sudan",
    "aliases": "SS, SSD, South Sudan",
    "short_description": "",
    "flag_image": ""
  }
},
{
  "model": "blog.country",
  "pk": 18,
  "fields": {
    "name": "소말리아(Somalia)",
    "slug": "so",
    "iso_a2": "SO",
    "iso_a3": "SOM",
    "name_ko": "소말리아",
    "name_en": "Somalia",
    "aliases": "SO, SOM, Somalia",
    "short_description": "",
    "flag_image": ""
  }
},
{
  "model": "blog.country",
  "pk": 19,
  "fields": {
    "name": "케냐(Kenya)",
    "slug": "ke",
    "iso_a2": "KE",
    "iso_a3": "KEN",
    "name_ko": "케냐",
    "name_en": "Kenya",
    "aliases": "KE, KEN, Kenya",
    "short_description": "",
    "flag_image": ""
  }
},
{
  "model": "blog.country",
  "pk": 20,
  "fields": {
    "name": "말라위(Malawi)",
    "slug": "mw",
    "iso_a2": "MW",
    "iso_a3": "MWI",
    "name_ko": "말라위",
    "name_en": "Malawi",
    "aliases": "MW, MWI, Malawi",
    "short_description": "",
    "flag_image": ""
  }
},
{
  "model": "blog.country",
  "pk": 21,
  "fields": {
    "name": "탄자니아(Tanzania)",
    "slug": "tz",
    "iso_a2": "TZ",
    "iso_a3": "TZA",
    "name_ko": "탄자니아",
    "name_en": "United Republic of Tanzania",
    "aliases": "TZ, TZA, United Republic of Tanzania",
    "short_description": "",
    "flag_image": ""
  }
},
{
  "model": "blog.country",
  "pk": 22,
  "fields": {
    "name": "시리아(Syria)",
    "slug": "sy",
    "iso_a2": "SY",
    "iso_a3": "SYR",
    "name_ko": "시리아",
    "name_en": "Syria",
    "aliases": "SY, SYR, Syria",
    "short_description": "",
    "flag_image": ""
  }
},
{
  "model": "blog.country",
  "pk": 23,
  "fields": {
    "name": "수리남(Suriname)",
    "slug": "sr",
    "iso_a2": "SR",
    "iso_a3": "SUR",
    "name_ko": "수리남",
    "name_en": "Suriname",
    "aliases": "SR, SUR, Suriname",
    "short_description": "",
    "flag_image": ""
  }
},
{
  "model": "blog.country",
  "pk": 24,
  "fields": {
    "name": "가이아나(Guyana)",
    "slug": "gy",
    "iso_a2": "GY",
    "iso_a3": "GUY",
    "name_ko": "가이아나",
    "name_en": "Guyana",
    "aliases": "GUY, GY, Guyana",
    "short_description": "",
    "flag_image": ""
  }
},
{
  "model": "blog.country",
  "pk": 25,
  "fields": {
    "name": "대한민국(South Korea)",
    "slug": "kr",
    "iso_a2": "KR",
    "iso_a3": "KOR",
    "name_ko": "대한민국",
    "name_en": "South Korea",
    "aliases": "KOR, KR, South Korea, 한국, 남한",
    "short_description": "",
    "flag_image": ""
  }
},
{
  "model": "blog.country",
  "pk": 26,
  "fields": {
    "name": "북한(North Korea)",
    "slug": "kp",
    "iso_a2": "KP",
    "iso_a3": "PRK",
    "name_ko": "북한",
    "name_en": "North Korea",
    "aliases": "KP, North Korea, PRK",
    "short_description": "",
    "flag_image": ""
  }
},
{
  "model": "blog.country",
  "pk": 27,
  "fields": {
    "name": "모로코(Morocco)",
    "slug": "ma",
    "iso_a2": "MA",
    "iso_a3": "MAR",
    "name_ko": "모로코",
    "name_en": "Morocco",
    "aliases": "MA, MAR, Morocco",
    "short_description": "",
    "flag_image": ""
  }
},
{
  "model": "blog.country",
  "pk": 28,
  "fields": {
    "name": "서사하라(Western Sahara)",
    "slug": "eh",
    "iso_a2": "EH",
    "iso_a3": "ESH",
    "name_ko": "서사하라",
    "name_en": "Western Sahara",
    "aliases": "EH, ESH, Western Sahara",
    "short_description": "",
    "flag_image": ""
  }
},
{
  "model": "blog.country",
  "pk": 29,
  "fields": {
    "name": "코스타리카(Costa Rica)",
    "slug": "cr",
    "iso_a2": "CR",
    "iso_a3": "CRI",
    "name_ko": "코스타리카",
    "name_en": "Costa Rica",
    "aliases": "CR, CRI, Costa Rica",
    "short_description": "",
    "flag_image": ""
  }
},
{
  "model": "blog.country",
  "pk": 30,
  "fields": {
    "name": "니카라과(Nicaragua)",
    "slug": "ni",
    "iso_a2": "NI",
    "iso_a3": "NIC",
    "name_ko": "니카라과",
    "name_en": "Nicaragua",
    "aliases": "NI, NIC, Nicaragua",
    "short_description": "",
    "flag_image": ""
  }
},
{
  "model": "blog.country",
  "pk": 31,
  "fields": {
    "name": "콩고-브라자빌(Congo - Brazzaville)",
    "slug": "cg",
    "iso_a2": "CG",
    "iso_a3": "COG",
    "name_ko": "콩고-브라자빌",
    "name_en": "Republic of the Congo",
    "aliases": "CG, COG, Republic of the Congo",
    "short_description": "",
    "flag_image": ""
  }
},
{
  "model": "blog.country",
  "pk": 32,
  "fields": {
    "name": "콩고-킨샤사(Congo - Kinshasa)",
    "slug": "cd",
    "iso_a2": "CD",
    "iso_a3": "COD",
    "name_ko": "콩고-킨샤사",
    "name_en": "Democratic Republic of the Congo",
    "aliases": "CD, COD, Democratic Republic of the Congo",
    "short_description": "",
    "flag_image": ""
  }
},
{
  "model": "blog.country",
  "pk": 33,
  "fields": {
    "name": "부탄(Bhutan)",
    "slug": "bt",
    "iso_a2": "BT",
    "iso_a3": "BTN",
    "name_ko": "부탄",
    "name_en": "Bhutan",
    "aliases": "BT, BTN, Bhutan",
    "short_description": "",
    "flag_image": ""
  }
},
{
  "model": "blog.country",
  "pk": 34,
  "fields": {
    "name": "우크라이나(Ukraine)",
    "slug": "ua",
    "iso_a2": "UA",
    "iso_a3": "UKR",
    "name_ko": "우크라이나",
    "name_en": "Ukraine",
    "aliases": "UA, UKR, Ukraine",
    "short_description": "",
    "flag_image": ""
  }
},
{
  "model": "blog.country",
  "pk": 35,
  "fields": {
    "name": "벨라루스(Belarus)",
    "slug": "by",
    "iso_a2": "BY",
    "iso_a3": "BLR",
    "name_ko": "벨라루스",
    "name_en": "Belarus",
    "aliases": "BLR, BY, Belarus",
    "short_description": "",
    "flag_image": ""
  }
},
{
  "model": "blog.country",
  "pk": 36,
  "fields": {
    "name": "나미비아(Namibia)",
    "slug": "na",
    "iso_a2": "NA",
    "iso_a3": "NAM",
    "name_ko": "나미비아",
    "name_en": "Namibia",
    "aliases": "NA, NAM, Namibia",
    "short_description": "",
    "flag_image": ""
  }
},
{
  "model": "blog.country",
  "pk": 37,
  "fields": {
    "name": "남아프리카(South Africa)",
    "slug": "za",
    "iso_a2": "ZA",
    "iso_a3": "ZAF",
    "name_ko": "남아프리카",
    "name_en": "South Africa",
    "aliases": "South Africa, ZA, ZAF",
    "short_description": "",
    "flag_image": ""
  }
},
{
  "model": "blog.country",
  "pk": 38,
  "fields": {
    "name": "생마르탱(St. Martin)",
    "slug": "mf",
    "iso_a2": "MF",
    "iso_a3": "MAF",
    "name_ko": "생마르탱",
    "name_en": "Saint Martin",
    "aliases": "MAF, MF, Saint Martin",
    "short_description": "",
    "flag_image": ""
  }
},
{
  "model": "blog.country",
  "pk": 39,
  "fields": {
    "name": "신트마르턴(Sint Maarten)",
    "slug": "sx",
    "iso_a2": "SX",
    "iso_a3": "SXM",
    "name_ko": "신트마르턴",
    "name_en": "Sint Maarten",
    "aliases": "SX, SXM, Sint Maarten",
    "short_description": "",
    "flag_image": ""
  }
},
{
  "model": "blog.country",
  "pk": 40,
  "fields": {
    "name": "오만(Oman)",
    "slug": "om",
    "iso_a2": "OM",
    "iso_a3": "OMN",
    "name_ko": "오만",
    "name_en": "Oman",
    "aliases": "OM, OMN, Oman",
    "short_description": "",
    "flag_image": ""
  }
},
{
  "model": "blog.country",
  "pk": 41,
  "fields": {
    "name": "우즈베키스탄(Uzbekistan)",
    "slug": "uz",
    "iso_a2": "UZ",
    "iso_a3": "UZB",
    "name_ko": "우즈베키스탄",
    "name_en": "Uzbekistan",
    "aliases": "UZ, UZB, Uzbekistan",
    "short_description": "",
    "flag_image": ""
  }
},
{
  "model": "blog.country",
  "pk": 42,
  "fields": {
    "name": "카자흐스탄(Kazakhstan)",
    "slug": "kz",
    "iso_a2": "KZ",
    "iso_a3": "KAZ",
    "name_ko": "카자흐스탄",
    "name_en": "Kazakhstan",
    "aliases": "KAZ, KZ, Kazakhstan",
    "short_description": "",
    "flag_image": ""
  }
},
{
  "model": "blog.country",
  "pk": 43,
  "fields": {
    "name": "타지키스탄(Tajikistan)",
    "slug": "tj",
    "iso_a2": "TJ",
    "iso_a3": "TJK",
    "name_ko": "타지키스탄",
    "name_en": "Tajikistan",
    "aliases": "TJ, TJK, Tajikistan",
    "short_description": "",
    "flag_image": ""
  }
},
{
  "model": "blog.country",
  "pk": 44,
  "fields": {
    "name": "리투아니아(Lithuania)",
    "slug": "lt",
    "iso_a2": "LT",
    "iso_a3": "LTU",
    "name_ko": "리투아니아",
    "name_en": "Lithuania",
    "aliases": "LT, LTU, Lithuania",
    "short_description": "",
    "flag_image": ""
  }
},
{
  "model": "blog.country",
  "pk": 45,
  "fields": {
    "name": "브라질(Brazil)",
    "slug": "br",
    "iso_a2": "BR",
    "iso_a3": "BRA",
    "name_ko": "브라질",
    "name_en": "Brazil",
    "aliases": "BR, BRA, Brazil",
    "short_description": "",
    "flag_image": ""
  }
},
{
  "model": "blog.country",
  "pk": 46,
  "fields": {
    "name": "우루과이(Uruguay)",
    "slug": "uy",
    "iso_a2": "UY",
    "iso_a3": "URY",
    "name_ko": "우루과이",
    "name_en": "Uruguay",
    "aliases": "URY, UY, Uruguay",
    "short_description": "",
    "flag_image": ""
  }
},
{
  "model": "blog.country",
  "pk": 47,
  "fields": {
    "name": "몽골(Mongolia)",
    "slug": "mn",
    "iso_a2": "MN",
    "iso_a3": "MNG",
    "name_ko": "몽골",
    "name_en": "Mongolia",
    "aliases": "MN, MNG, Mongolia",
    "short_description": "",
    "flag_image": ""
  }
},
{
  "model": "blog.country",
  "pk": 48,
  "fields": {
    "name": "러시아(Russia)",
    "slug": "ru",
    "iso_a2": "RU",
    "iso_a3": "RUS",
    "name_ko": "러시아",
    "name_en": "Russia",
    "aliases": "RU, RUS, Russia",
    "short_description": "",
    "flag_image": ""
  }
},
{
  "model": "blog.country",
  "pk": 49,
  "fields": {
    "name": "체코(Czechia)",
    "slug": "cz",
    "iso_a2": "CZ",
    "iso_a3": "CZE",
    "name_ko": "체코",
    "name_en": "Czechia",
    "aliases": "CZ, CZE, Czechia",
    "short_description": "",
    "flag_image": ""
  }
},
{
  "model": "blog.country",
  "pk": 50,
  "fields": {
    "name": "독일(Germany)",
    "slug": "de",
    "iso_a2": "DE",
    "iso_a3": "DEU",
    "name_ko": "독일",
    "name_en": "Germany",
    "aliases": "DE, DEU, Germany",
    "short_description": "",
    "flag_image": ""
  }
},
{
  "model": "blog.country",
  "pk": 51,
  "fields": {
    "name": "에스토니아(Estonia)",
    "slug": "ee",
    "iso_a2": "EE",
    "iso_a3": "EST",
    "name_ko": "에스토니아",
    "name_en": "Estonia",
    "aliases": "EE, EST, Estonia",
    "short_description": "",
    "flag_image": ""
  }
},
{
  "model": "blog.country",
  "pk": 52,
  "fields": {
    "name": "라트비아(Latvia)",
    "slug": "lv",
    "iso_a2": "LV",
    "iso_a3": "LVA",
    "name_ko": "라트비아",
    "name_en": "Latvia",
    "aliases": "LV, LVA, Latvia",
    "short_description": "",
    "flag_image": ""
  }
},
{
  "model": "blog.country",
  "pk": 53,
  "fields": {
    "name": "스웨덴(Sweden)",
    "slug": "se",
    "iso_a2": "SE",
    "iso_a3": "SWE",
    "name_ko": "스웨덴",
    "name_en": "Sweden",
    "aliases": "SE, SWE, Sweden",
    "short_description": "",
    "flag_image": ""
  }
},
{
  "model": "blog.country",
  "pk": 54,
  "fields": {
    "name": "핀란드(Finland)",
    "slug": "fi",
    "iso_a2": "FI",
    "iso_a3": "FIN",
    "name_ko": "핀란드",
    "name_en": "Finland",
    "aliases": "FI, FIN, Finland",
    "short_description": "",
    "flag_image": ""
  }
},
{
  "model": "blog.country",
  "pk": 55,
  "fields": {
    "name": "베트남(Vietnam)",
    "slug": "vn",
    "iso_a2": "VN",
    "iso_a3": "VNM",
    "name_ko": "베트남",
    "name_en": "Vietnam",
    "aliases": "VN, VNM, Vietnam",
    "short_description": "",
    "flag_image": ""
  }
},
{
  "model": "blog.country",
  "pk": 56,
  "fields": {
    "name": "캄보디아(Cambodia)",
    "slug": "kh",
    "iso_a2": "KH",
    "iso_a3": "KHM",
    "name_ko": "캄보디아",
    "name_en": "Cambodia",
    "aliases": "Cambodia, KH, KHM",
    "short_description": "",
    "flag_image": ""
  }
},
{
  "model": "blog.country",
  "pk": 57,
  "fields": {
    "name": "룩셈부르크(Luxembourg)",
    "slug": "lu",
    "iso_a2": "LU",
    "iso_a3": "LUX",
    "name_ko": "룩셈부르크",
    "name_en": "Luxembourg",
    "aliases": "LU, LUX, Luxembourg",
    "short_description": "",
    "flag_image": ""
  }
},
{
  "model": "blog.country",
  "pk": 58,
  "fields": {
    "name": "아랍에미리트(United Arab Emirates)",
    "slug": "ae",
    "iso_a2": "AE",
    "iso_a3": "ARE",
    "name_ko": "아랍에미리트",
    "name_en": "United Arab Emirates",
    "aliases": "AE, ARE, United Arab Emirates",
    "short_description": "",
    "flag_image": ""
  }
},
{
  "model": "blog.country",
  "pk": 59,
  "fields": {
    "name": "벨기에(Belgium)",
    "slug": "be",
    "iso_a2": "BE",
    "iso_a3": "BEL",
    "name_ko": "벨기에",
    "name_en": "Belgium",
    "aliases": "BE, BEL, Belgium",
    "short_description": "",
    "flag_image": ""
  }
},
{
  "model": "blog.country",
  "pk": 60,
  "fields": {
    "name": "조지아(Georgia)",
    "slug": "ge",
    "iso_a2": "GE",
    "iso_a3": "GEO",
    "name_ko": "조지아",
    "name_en": "Georgia",
    "aliases": "GE, GEO, Georgia",
    "short_description": "",
    "flag_image": ""
  }
},
{
  "model": "blog.country",
  "pk": 61,
  "fields": {
    "name": "북마케도니아(North Macedonia)",
    "slug": "mk",
    "iso_a2": "MK",
    "iso_a3": "MKD",
    "name_ko": "북마케도니아",
    "name_en": "North Macedonia",
    "aliases": "MK, MKD, North Macedonia",
    "short_description": "",
    "flag_image": ""
  }
},
{
  "model": "blog.country",
  "pk": 62,
  "fields": {
    "name": "알바니아(Albania)",
    "slug": "al",
    "iso_a2": "AL",
    "iso_a3": "ALB",
    "name_ko": "알바니아",
    "name_en": "Albania",
    "aliases": "AL, ALB, Albania",
    "short_description": "",
    "flag_image": ""
  }
},
{
  "model": "blog.country",
  "pk": 63,
  "fields": {
    "name": "아제르바이잔(Azerbaijan)",
    "slug": "az",
    "iso_a2": "AZ",
    "iso_a3": "AZE",
    "name_ko": "아제르바이잔",
    "name_en": "Azerbaijan",
    "aliases": "AZ, AZE, Azerbaijan",
    "short_description": "",
    "flag_image": ""
  }
},
{
  "model": "blog.country",
  "pk": 64,
  "fields": {
    "name": "튀르키예(Türkiye)",
    "slug": "tr",
    "iso_a2": "TR",
    "iso_a3": "TUR",
    "name_ko": "튀르키예",
    "name_en": "Turkey",
    "aliases": "TR, TUR, Turkey",
    "short_description": "",
    "flag_image": ""
  }
},
{
  "model": "blog.country",
  "pk": 65,
  "fields": {
    "name": "스페인(Spain)",
    "slug": "es",
    "iso_a2": "ES",
    "iso_a3": "ESP",
    "name_ko": "스페인",
    "name_en": "Spain",
    "aliases": "ES, ESP, Spain",
    "short_description": "",
    "flag_image": ""
  }
},
{
  "model": "blog.country",
  "pk": 66,
  "fields": {
    "name": "라오스(Laos)",
    "slug": "la",
    "iso_a2": "LA",
    "iso_a3": "LAO",
    "name_ko": "라오스",
    "name_en": "Laos",
    "aliases": "LA, LAO, Laos",
    "short_description": "",
    "flag_image": ""
  }
},
{
  "model": "blog.country",
  "pk": 67,
  "fields": {
    "name": "키르기스스탄(Kyrgyzstan)",
    "slug": "kg",
    "iso_a2": "KG",
    "iso_a3": "KGZ",
    "name_ko": "키르기스스탄",
    "name_en": "Kyrgyzstan",
    "aliases": "KG, KGZ, Kyrgyzstan",
    "short_description": "",
    "flag_image": ""
  }
},
{
  "model": "blog.country",
  "pk": 68,
  "fields": {
    "name": "아르메니아(Armenia)",
    "slug": "am",
    "iso_a2": "AM",
    "iso_a3": "ARM",
    "name_ko": "아르메니아",
    "name_en": "Armenia",
    "aliases": "AM, ARM, Armenia",
    "short_description": "",
    "flag_image": ""
  }
},
{
  "model": "blog.country",
  "pk": 69,
  "fields": {
    "name": "덴마크(Denmark)",
    "slug": "dk",
    "iso_a2": "DK",
    "iso_a3": "DNK",
    "name_ko": "덴마크",
    "name_en": "Denmark",
    "aliases": "DK, DNK, Denmark",
    "short_description": "",
    "flag_image": ""
  }
},
{
  "model": "blog.country",
  "pk": 70,
  "fields": {
    "name": "리비아(Libya)",
    "slug": "ly",
    "iso_a2": "LY",
    "iso_a3": "LBY",
    "name_ko": "리비아",
    "name_en": "Libya",
    "aliases": "LBY, LY, Libya",
    "short_description": "",
    "flag_image": ""
  }
},
{
  "model": "blog.country",
  "pk": 71,
  "fields": {
    "name": "튀니지(Tunisia)",
    "slug": "tn",
    "iso_a2": "TN",
    "iso_a3": "TUN",
    "name_ko": "튀니지",
    "name_en": "Tunisia",
    "aliases": "TN, TUN, Tunisia",
    "short_description": "",
    "flag_image": ""
  }
},
{
  "model": "blog.country",
  "pk": 72,
  "fields": {
    "name": "루마니아(Romania)",
    "slug": "ro",
    "iso_a2": "RO",
    "iso_a3": "ROU",
    "name_ko": "루마니아",
    "name_en": "Romania",
    "aliases": "RO, ROU, Romania",
    "short_description": "",
    "flag_image": ""
  }
},
{
  "model": "blog.country",
  "pk": 73,
  "fields": {
    "name": "헝가리(Hungary)",
    "slug": "hu",
    "iso_a2": "HU",
    "iso_a3": "HUN",
    "name_ko": "헝가리",
    "name_en": "Hungary",
    "aliases": "HU, HUN, Hungary",
    "short_description": "",
    "flag_image": ""
  }
},
{
  "model": "blog.country",
  "pk": 74,
  "fields": {
    "name": "슬로바키아(Slovakia)",
    "slug": "sk",
    "iso_a2": "SK",
    "iso_a3": "SVK",
    "name_ko": "슬로바키아",
    "name_en": "Slovakia",
    "aliases": "SK, SVK, Slovakia",
    "short_description": "",
    "flag_image": ""
  }
},
{
  "model": "blog.country",
  "pk": 75,
  "fields": {
    "name": "폴란드(Poland)",
    "slug": "pl",
    "iso_a2": "PL",
    "iso_a3": "POL",
    "name_ko": "폴란드",
    "name_en": "Poland",
    "aliases": "PL, POL, Poland",
    "short_description": "",
    "flag_image": ""
  }
},
{
  "model": "blog.country",
  "pk": 76,
  "fields": {
    "name": "아일랜드(Ireland)",
    "slug": "ie",
    "iso_a2": "IE",
    "iso_a3": "IRL",
    "name_ko": "아일랜드",
    "name_en": "Ireland",
    "aliases": "IE, IRL, Ireland",
    "short_description": "",
    "flag_image": ""
  }
},
{
  "model": "blog.country",
  "pk": 77,
  "fields": {
    "name": "영국(United Kingdom)",
    "slug": "gb",
    "iso_a2": "GB",
    "iso_a3": "GBR",
    "name_ko": "영국",
    "name_en": "United Kingdom",
    "aliases": "GB, GBR, United Kingdom",
    "short_description": "",
    "flag_image": ""
  }
},
{
  "model": "blog.country",
  "pk": 78,
  "fields": {
    "name": "그리스(Greece)",
    "slug": "gr",
    "iso_a2": "GR",
    "iso_a3": "GRC",
    "name_ko": "그리스",
    "name_en": "Greece",
    "aliases": "GR, GRC, Greece",
    "short_description": "",
    "flag_image": ""
  }
},
{
  "model": "blog.country",
  "pk": 79,
  "fields": {
    "name": "잠비아(Zambia)",
    "slug": "zm",
    "iso_a2": "ZM",
    "iso_a3": "ZMB",
    "name_ko": "잠비아",
    "name_en": "Zambia",
    "aliases": "ZM, ZMB, Zambia",
    "short_description": "",
    "flag_image": ""
  }
},
{
  "model": "blog.country",
  "pk": 80,
  "fields": {
    "name": "시에라리온(Sierra Leone)",
    "slug": "sl",
    "iso_a2": "SL",
    "iso_a3": "SLE",
    "name_ko": "시에라리온",
    "name_en": "Sierra Leone",
    "aliases": "SL, SLE, Sierra Leone",
    "short_description": "",
    "flag_image": ""
  }
},
{
  "model": "blog.country",
  "pk": 81,
  "fields": {
    "name": "기니(Guinea)",
    "slug": "gn",
    "iso_a2": "GN",
    "iso_a3": "GIN",
    "name_ko": "기니",
    "name_en": "Guinea",
    "aliases": "GIN, GN, Guinea",
    "short_description": "",
    "flag_image": ""
  }
},
{
  "model": "blog.country",
  "pk": 82,
  "fields": {
    "name": "라이베리아(Liberia)",
    "slug": "lr",
    "iso_a2": "LR",
    "iso_a3": "LBR",
    "name_ko": "라이베리아",
    "name_en": "Liberia",
    "aliases": "LBR, LR, Liberia",
    "short_description": "",
    "flag_image": ""
  }
},
{
  "model": "blog.country",
  "pk": 83,
  "fields": {
    "name": "중앙 아프리카 공화국(Central African Republic)",
    "slug": "cf",
    "iso_a2": "CF",
    "iso_a3": "CAF",
    "name_ko": "중앙 아프리카 공화국",
    "name_en": "Central African Republic",
    "aliases": "CAF, CF, Central African Republic",
    "short_description": "",
    "flag_image": ""
  }
},
{
  "model": "blog.country",
  "pk": 84,
  "fields": {
    "name": "수단(Sudan)",
    "slug": "sd",
    "iso_a2": "SD",
    "iso_a3": "SDN",
    "name_ko": "수단",
    "name_en": "Sudan",
    "aliases": "SD, SDN, Sudan",
    "short_description": "",
    "flag_image": ""
  }
},
{
  "model": "blog.country",
  "pk": 85,
  "fields": {
    "name": "지부티(Djibouti)",
    "slug": "dj",
    "iso_a2": "DJ",
    "iso_a3": "DJI",
    "name_ko": "지부티",
    "name_en": "Djibouti",
    "aliases": "DJ, DJI, Djibouti",
    "short_description": "",
    "flag_image": ""
  }
},
{
  "model": "blog.country",
  "pk": 86,
  "fields": {
    "name": "에리트리아(Eritrea)",
    "slug": "er",
    "iso_a2": "ER",
    "iso_a3": "ERI",
    "name_ko": "에리트리아",
    "name_en": "Eritrea",
    "aliases": "ER, ERI, Eritrea",
    "short_description": "",
    "flag_image": ""
  }
},
{
  "model": "blog.country",
  "pk": 87,
  "fields": {
    "name": "오스트리아(Austria)",
    "slug": "at",
    "iso_a2": "AT",
    "iso_a3": "AUT",
    "name_ko": "오스트리아",
    "name_en": "Austria",
    "aliases": "AT, AUT, Austria",
    "short_description": "",
    "flag_image": ""
  }
},
{
  "model": "blog.country",
  "pk": 88,
  "fields": {
    "name": "이라크(Iraq)",
    "slug": "iq",
    "iso_a2": "IQ",
    "iso_a3": "IRQ",
    "name_ko": "이라크",
    "name_en": "Iraq",
    "aliases": "IQ, IRQ, Iraq",
    "short_description": "",
    "flag_image": ""
  }
},
{
  "model": "blog.country",
  "pk": 89,
  "fields": {
    "name": "이탈리아(Italy)",
    "slug": "it",
    "iso_a2": "IT",
    "iso_a3": "ITA",
    "name_ko": "이탈리아",
    "name_en": "Italy",
    "aliases": "IT, ITA, Italy",
    "short_description": "",
    "flag_image": ""
  }
},
{
  "model": "blog.country",
  "pk": 90,
  "fields": {
    "name": "스위스(Switzerland)",
    "slug": "ch",
    "iso_a2": "CH",
    "iso_a3": "CHE",
    "name_ko": "스위스",
    "name_en": "Switzerland",
    "aliases": "CH, CHE, Switzerland",
    "short_description": "",
    "flag_image": ""
  }
},
{
  "model": "blog.country",
  "pk": 91,
  "fields": {
    "name": "이란(Iran)",
    "slug": "ir",
    "iso_a2": "IR",
    "iso_a3": "IRN",
    "name_ko": "이란",
    "name_en": "Iran",
    "aliases": "IR, IRN, Iran",
    "short_description": "",
    "flag_image": ""
  }
},
{
  "model": "blog.country",
  "pk": 92,
  "fields": {
    "name": "네덜란드(Netherlands)",
    "slug": "nl",
    "iso_a2": "NL",
    "iso_a3": "NLD",
    "name_ko": "네덜란드",
    "name_en": "Netherlands",
    "aliases": "NL, NLD, Netherlands",
    "short_description": "",
    "flag_image": ""
  }
},
{
  "model": "blog.country",
  "pk": 93,
  "fields": {
    "name": "리히텐슈타인(Liechtenstein)",
    "slug": "li",
    "iso_a2": "LI",
    "iso_a3": "LIE",
    "name_ko": "리히텐슈타인",
    "name_en": "Liechtenstein",
    "aliases": "LI, LIE, Liechtenstein",
    "short_description": "",
    "flag_image": ""
  }
},
{
  "model": "blog.country",
  "pk": 94,
  "fields": {
    "name": "코트디부아르(Côte d’Ivoire)",
    "slug": "ci",
    "iso_a2": "CI",
    "iso_a3": "CIV",
    "name_ko": "코트디부아르",
    "name_en": "Ivory Coast",
    "aliases": "CI, CIV, Ivory Coast",
    "short_description": "",
    "flag_image": ""
  }
},
{
  "model": "blog.country",
  "pk": 95,
  "fields": {
    "name": "세르비아(Serbia)",
    "slug": "rs",
    "iso_a2": "RS",
    "iso_a3": "SRB",
    "name_ko": "세르비아",
    "name_en": "Republic of Serbia",
    "aliases": "RS, Republic of Serbia, SRB",
    "short_description": "",
    "flag_image": ""
  }
},
{
  "model": "blog.country",
  "pk": 96,
  "fields": {
    "name": "말리(Mali)",
    "slug": "ml",
    "iso_a2": "ML",
    "iso_a3": "MLI",
    "name_ko": "말리",
    "name_en": "Mali",
    "aliases": "ML, MLI, Mali",
    "short_description": "",
    "flag_image": ""
  }
},
{
  "model": "blog.country",
  "pk": 97,
  "fields": {
    "name": "세네갈(Senegal)",
    "slug": "sn",
    "iso_a2": "SN",
    "iso_a3": "SEN",
    "name_ko": "세네갈",
    "name_en": "Senegal",
    "aliases": "SEN, SN, Senegal",
    "short_description": "",
    "flag_image": ""
  }
},
{
  "model": "blog.country",
  "pk": 98,
  "fields": {
    "name": "나이지리아(Nigeria)",
    "slug": "ng",
    "iso_a2": "NG",
    "iso_a3": "NGA",
    "name_ko": "나이지리아",
    "name_en": "Nigeria",
    "aliases": "NG, NGA, Nigeria",
    "short_description": "",
    "flag_image": ""
  }
},
{
  "model": "blog.country",
  "pk": 99,
  "fields": {
    "name": "베냉(Benin)",
    "slug": "bj",
    "iso_a2": "BJ",
    "iso_a3": "BEN",
    "name_ko": "베냉",
    "name_en": "Benin",
    "aliases": "BEN, BJ, Benin",
    "short_description": "",
    "flag_image": ""
  }
},
{
  "model": "blog.country",
  "pk": 100,
  "fields": {
    "name": "앙골라(Angola)",
    "slug": "ao",
    "iso_a2": "AO",
    "iso_a3": "AGO",
    "name_ko": "앙골라",
    "name_en": "Angola",
    "aliases": "AGO, AO, Angola",
    "short_description": "",
    "flag_image": ""
  }
},
{
  "model": "blog.country",
  "pk": 101,
  "fields": {
    "name": "크로아티아(Croatia)",
    "slug": "hr",
    "iso_a2": "HR",
    "iso_a3": "HRV",
    "name_ko": "크로아티아",
    "name_en": "Croatia",
    "aliases": "Croatia, HR, HRV",
    "short_description": "",
    "flag_image": ""
  }
},
{
  "model": "blog.country",
  "pk": 102,
  "fields": {
    "name": "슬로베니아(Slovenia)",
    "slug": "si",
    "iso_a2": "SI",
    "iso_a3": "SVN",
    "name_ko": "슬로베니아",
    "name_en": "Slovenia",
    "aliases": "SI, SVN, Slovenia",
    "short_description": "",
    "flag_image": ""
  }
},
{
  "model": "blog.country",
  "pk": 103,
  "fields": {
    "name": "카타르(Qatar)",
    "slug": "qa",
    "iso_a2": "QA",
    "iso_a3": "QAT",
    "name_ko": "카타르",
    "name_en": "Qatar",
    "aliases": "QA, QAT, Qatar",
    "short_description": "",
    "flag_image": ""
  }
},
{
  "model": "blog.country",
  "pk": 104,
  "fields": {
    "name": "사우디아라비아(Saudi Arabia)",
    "slug": "sa",
    "iso_a2": "SA",
    "iso_a3": "SAU",
    "name_ko": "사우디아라비아",
    "name_en": "Saudi Arabia",
    "aliases": "SA, SAU, Saudi Arabia",
    "short_description": "",
    "flag_image": ""
  }
},
{
  "model": "blog.country",
  "pk": 105,
  "fields": {
    "name": "보츠와나(Botswana)",
    "slug": "bw",
    "iso_a2": "BW",
    "iso_a3": "BWA",
    "name_ko": "보츠와나",
    "name_en": "Botswana",
    "aliases": "BW, BWA, Botswana",
    "short_description": "",
    "flag_image": ""
  }
},
{
  "model": "blog.country",
  "pk": 106,
  "fields": {
    "name": "짐바브웨(Zimbabwe)",
    "slug": "zw",
    "iso_a2": "ZW",
    "iso_a3": "ZWE",
    "name_ko": "짐바브웨",
    "name_en": "Zimbabwe",
    "aliases": "ZW, ZWE, Zimbabwe",
    "short_description": "",
    "flag_image": ""
  }
},
{
  "model": "blog.country",
  "pk": 107,
  "fields": {
    "name": "파키스탄(Pakistan)",
    "slug": "pk",
    "iso_a2": "PK",
    "iso_a3": "PAK",
    "name_ko": "파키스탄",
    "name_en": "Pakistan",
    "aliases": "PAK, PK, Pakistan",
    "short_description": "",
    "flag_image": ""
  }
},
{
  "model": "blog.country",
  "pk": 108,
  "fields": {
    "name": "불가리아(Bulgaria)",
    "slug": "bg",
    "iso_a2": "BG",
    "iso_a3": "BGR",
    "name_ko": "불가리아",
    "name_en": "Bulgaria",
    "aliases": "BG, BGR, Bulgaria",
    "short_description": "",
    "flag_image": ""
  }
},
{
  "model": "blog.country",
  "pk": 109,
  "fields": {
    "name": "태국(Thailand)",
    "slug": "th",
    "iso_a2": "TH",
    "iso_a3": "THA",
    "name_ko": "태국",
    "name_en": "Thailand",
    "aliases": "TH, THA, Thailand",
    "short_description": "",
    "flag_image": ""
  }
},
{
  "model": "blog.country",
  "pk": 110,
  "fields": {
    "name": "산마리노(San Marino)",
    "slug": "sm",
    "iso_a2": "SM",
    "iso_a3": "SMR",
    "name_ko": "산마리노",
    "name_en": "San Marino",
    "aliases": "SM, SMR, San Marino",
    "short_description": "",
    "flag_image": ""
  }
},
{
  "model": "blog.country",
  "pk": 111,
  "fields": {
    "name": "아이티(Haiti)",
    "slug": "ht",
    "iso_a2": "HT",
    "iso_a3": "HTI",
    "name_ko": "아이티",
    "name_en": "Haiti",
    "aliases": "HT, HTI, Haiti",
    "short_description": "",
    "flag_image": ""
  }
},
{
  "model": "blog.country",
  "pk": 112,
  "fields": {
    "name": "도미니카 공화국(Dominican Republic)",
    "slug": "do",
    "iso_a2": "DO",
    "iso_a3": "DOM",
    "name_ko": "도미니카 공화국",
    "name_en": "Dominican Republic",
    "aliases": "DO, DOM, Dominican Republic",
    "short_description": "",
    "flag_image": ""
  }
},
{
  "model": "blog.country",
  "pk": 113,
  "fields": {
    "name": "차드(Chad)",
    "slug": "td",
    "iso_a2": "TD",
    "iso_a3": "TCD",
    "name_ko": "차드",
    "name_en": "Chad",
    "aliases": "Chad, TCD, TD",
    "short_description": "",
    "flag_image": ""
  }
},
{
  "model": "blog.country",
  "pk": 114,
  "fields": {
    "name": "쿠웨이트(Kuwait)",
    "slug": "kw",
    "iso_a2": "KW",
    "iso_a3": "KWT",
    "name_ko": "쿠웨이트",
    "name_en": "Kuwait",
    "aliases": "KW, KWT, Kuwait",
    "short_description": "",
    "flag_image": ""
  }
},
{
  "model": "blog.country",
  "pk": 115,
  "fields": {
    "name": "엘살바도르(El Salvador)",
    "slug": "sv",
    "iso_a2": "SV",
    "iso_a3": "SLV",
    "name_ko": "엘살바도르",
    "name_en": "El Salvador",
    "aliases": "El Salvador, SLV, SV",
    "short_description": "",
    "flag_image": ""
  }
},
{
  "model": "blog.country",
  "pk": 116,
  "fields": {
    "name": "과테말라(Guatemala)",
    "slug": "gt",
    "iso_a2": "GT",
    "iso_a3": "GTM",
    "name_ko": "과테말라",
    "name_en": "Guatemala",
    "aliases": "GT, GTM, Guatemala",
    "short_description": "",
    "flag_image": ""
  }
},
{
  "model": "blog.country",
  "pk": 117,
  "fields": {
    "name": "동티모르(Timor-Leste)",
    "slug": "tl",
    "iso_a2": "TL",
    "iso_a3": "TLS",
    "name_ko": "동티모르",
    "name_en": "East Timor",
    "aliases": "East Timor, TL, TLS",
    "short_description": "",
    "flag_image": ""
  }
},
{
  "model": "blog.country",
  "pk": 118,
  "fields": {
    "name": "브루나이(Brunei)",
    "slug": "bn",
    "iso_a2": "BN",
    "iso_a3": "BRN",
    "name_ko": "브루나이",
    "name_en": "Brunei",
    "aliases": "BN, BRN, Brunei",
    "short_description": "",
    "flag_image": ""
  }
},
{
  "model": "blog.country",
  "pk": 119,
  "fields": {
    "name": "모나코(Monaco)",
    "slug": "mc",
    "iso_a2": "MC",
    "iso_a3": "MCO",
    "name_ko": "모나코",
    "name_en": "Monaco",
    "aliases": "MC, MCO, Monaco",
    "short_description": "",
    "flag_image": ""
  }
},
{
  "model": "blog.country",
  "pk": 120,
  "fields": {
    "name": "알제리(Algeria)",
    "slug": "dz",
    "iso_a2": "DZ",
    "iso_a3": "DZA",
    "name_ko": "알제리",
    "name_en": "Algeria",
    "aliases": "Algeria, DZ, DZA",
    "short_description": "",
    "flag_image": ""
  }
},
{
  "model": "blog.country",
  "pk": 121,
  "fields": {
    "name": "모잠비크(Mozambique)",
    "slug": "mz",
    "iso_a2": "MZ",
    "iso_a3": "MOZ",
    "name_ko": "모잠비크",
    "name_en": "Mozambique",
    "aliases": "MOZ, MZ, Mozambique",
    "short_description": "",
    "flag_image": ""
  }
},
{
  "model": "blog.country",
  "pk": 122,
  "fields": {
    "name": "에스와티니(Eswatini)",
    "slug": "sz",
    "iso_a2": "SZ",
    "iso_a3": "SWZ",
    "name_ko": "에스와티니",
    "name_en": "eSwatini",
    "aliases": "SWZ, SZ, eSwatini",
    "short_description": "",
    "flag_image": ""
  }
},
{
  "model": "blog.country",
  "pk": 123,
  "fields": {
    "name": "부룬디(Burundi)",
    "slug": "bi",
    "iso_a2": "BI",
    "iso_a3": "BDI",
    "name_ko": "부룬디",
    "name_en": "Burundi",
    "aliases": "BDI, BI, Burundi",
    "short_description": "",
    "flag_image": ""
  }
},
{
  "model": "blog.country",
  "pk": 124,
  "fields": {
    "name": "르완다(Rwanda)",
    "slug": "rw",
    "iso_a2": "RW",
    "iso_a3": "RWA",
    "name_ko": "르완다",
    "name_en": "Rwanda",
    "aliases": "RW, RWA, Rwanda",
    "short_description": "",
    "flag_image": ""
  }
},
{
  "model": "blog.country",
  "pk": 125,
  "fields": {
    "name": "미얀마(Myanmar (Burma))",
    "slug": "mm",
    "iso_a2": "MM",
    "iso_a3": "MMR",
    "name_ko": "미얀마",
    "name_en": "Myanmar",
    "aliases": "MM, MMR, Myanmar",
    "short_description": "",
    "flag_image": ""
  }
},
{
  "model": "blog.country",
  "pk": 126,
  "fields": {
    "name": "방글라데시(Bangladesh)",
    "slug": "bd",
    "iso_a2": "BD",
    "iso_a3": "BGD",
    "name_ko": "방글라데시",
    "name_en": "Bangladesh",
    "aliases": "BD, BGD, Bangladesh",
    "short_description": "",
    "flag_image": ""
  }
},
{
  "model": "blog.country",
  "pk": 127,
  "fields": {
    "name": "안도라(Andorra)",
    "slug": "ad",
    "iso_a2": "AD",
    "iso_a3": "AND",
    "name_ko": "안도라",
    "name_en": "Andorra",
    "aliases": "AD, AND, Andorra",
    "short_description": "",
    "flag_image": ""
  }
},
{
  "model": "blog.country",
  "pk": 128,
  "fields": {
    "name": "아프가니스탄(Afghanistan)",
    "slug": "af",
    "iso_a2": "AF",
    "iso_a3": "AFG",
    "name_ko": "아프가니스탄",
    "name_en": "Afghanistan",
    "aliases": "AF, AFG, Afghanistan",
    "short_description": "",
    "flag_image": ""
  }
},
{
  "model": "blog.country",
  "pk": 129,
  "fields": {
    "name": "몬테네그로(Montenegro)",
    "slug": "me",
    "iso_a2": "ME",
    "iso_a3": "MNE",
    "name_ko": "몬테네그로",
    "name_en": "Montenegro",
    "aliases": "ME, MNE, Montenegro",
    "short_description": "",
    "flag_image": ""
  }
},
{
  "model": "blog.country",
  "pk": 130,
  "fields": {
    "name": "보스니아 헤르체고비나(Bosnia & Herzegovina)",
    "slug": "ba",
    "iso_a2": "BA",
    "iso_a3": "BIH",
    "name_ko": "보스니아 헤르체고비나",
    "name_en": "Bosnia and Herzegovina",
    "aliases": "BA, BIH, Bosnia and Herzegovina, Bosnia and Herz., Bosnia and Herz, Bosnia-Herzegovina",
    "short_description": "",
    "flag_image": ""
  }
},
{
  "model": "blog.country",
  "pk": 131,
  "fields": {
    "name": "우간다(Uganda)",
    "slug": "ug",
    "iso_a2": "UG",
    "iso_a3": "UGA",
    "name_ko": "우간다",
    "name_en": "Uganda",
    "aliases": "UG, UGA, Uganda",
    "short_description": "",
    "flag_image": ""
  }
},
{
  "model": "blog.country",
  "pk": 132,
  "fields": {
    "name": "쿠바(Cuba)",
    "slug": "cu",
    "iso_a2": "CU",
    "iso_a3": "CUB",
    "name_ko": "쿠바",
    "name_en": "Cuba",
    "aliases": "CU, CUB, Cuba",
    "short_description": "",
    "flag_image": ""
  }
},
{
  "model": "blog.country",
  "pk": 133,
  "fields": {
    "name": "온두라스(Honduras)",
    "slug": "hn",
    "iso_a2": "HN",
    "iso_a3": "HND",
    "name_ko": "온두라스",
    "name_en": "Honduras",
    "aliases": "HN, HND, Honduras",
    "short_description": "",
    "flag_image": ""
  }
},
{
  "model": "blog.country",
  "pk": 134,
  "fields": {
    "name": "에콰도르(Ecuador)",
    "slug": "ec",
    "iso_a2": "EC",
    "iso_a3": "ECU",
    "name_ko": "에콰도르",
    "name_en": "Ecuador",
    "aliases": "EC, ECU, Ecuador",
    "short_description": "",
    "flag_image": ""
  }
},
{
  "model": "blog.country",
  "pk": 135,
  "fields": {
    "name": "콜롬비아(Colombia)",
    "slug": "co",
    "iso_a2": "CO",
    "iso_a3": "COL",
    "name_ko": "콜롬비아",
    "name_en": "Colombia",
    "aliases": "CO, COL, Colombia",
    "short_description": "",
    "flag_image": ""
  }
},
{
  "model": "blog.country",
  "pk": 136,
  "fields": {
    "name": "파라과이(Paraguay)",
    "slug": "py",
    "iso_a2": "PY",
    "iso_a3": "PRY",
    "name_ko": "파라과이",
    "name_en": "Paraguay",
    "aliases": "PRY, PY, Paraguay",
    "short_description": "",
    "flag_image": ""
  }
},
{
  "model": "blog.country",
  "pk": 137,
  "fields": {
    "name": "포르투갈(Portugal)",
    "slug": "pt",
    "iso_a2": "PT",
    "iso_a3": "PRT",
    "name_ko": "포르투갈",
    "name_en": "Portugal",
    "aliases": "PRT, PT, Portugal",
    "short_description": "",
    "flag_image": ""
  }
},
{
  "model": "blog.country",
  "pk": 138,
  "fields": {
    "name": "몰도바(Moldova)",
    "slug": "md",
    "iso_a2": "MD",
    "iso_a3": "MDA",
    "name_ko": "몰도바",
    "name_en": "Moldova",
    "aliases": "MD, MDA, Moldova",
    "short_description": "",
    "flag_image": ""
  }
},
{
  "model": "blog.country",
  "pk": 139,
  "fields": {
    "name": "투르크메니스탄(Turkmenistan)",
    "slug": "tm",
    "iso_a2": "TM",
    "iso_a3": "TKM",
    "name_ko": "투르크메니스탄",
    "name_en": "Turkmenistan",
    "aliases": "TKM, TM, Turkmenistan",
    "short_description": "",
    "flag_image": ""
  }
},
{
  "model": "blog.country",
  "pk": 140,
  "fields": {
    "name": "요르단(Jordan)",
    "slug": "jo",
    "iso_a2": "JO",
    "iso_a3": "JOR",
    "name_ko": "요르단",
    "name_en": "Jordan",
    "aliases": "JO, JOR, Jordan",
    "short_description": "",
    "flag_image": ""
  }
},
{
  "model": "blog.country",
  "pk": 141,
  "fields": {
    "name": "네팔(Nepal)",
    "slug": "np",
    "iso_a2": "NP",
    "iso_a3": "NPL",
    "name_ko": "네팔",
    "name_en": "Nepal",
    "aliases": "NP, NPL, Nepal",
    "short_description": "",
    "flag_image": ""
  }
},
{
  "model": "blog.country",
  "pk": 142,
  "fields": {
    "name": "레소토(Lesotho)",
    "slug": "ls",
    "iso_a2": "LS",
    "iso_a3": "LSO",
    "name_ko": "레소토",
    "name_en": "Lesotho",
    "aliases": "LS, LSO, Lesotho",
    "short_description": "",
    "flag_image": ""
  }
},
{
  "model": "blog.country",
  "pk": 143,
  "fields": {
    "name": "카메룬(Cameroon)",
    "slug": "cm",
    "iso_a2": "CM",
    "iso_a3": "CMR",
    "name_ko": "카메룬",
    "name_en": "Cameroon",
    "aliases": "CM, CMR, Cameroon",
    "short_description": "",
    "flag_image": ""
  }
},
{
  "model": "blog.country",
  "pk": 144,
  "fields": {
    "name": "가봉(Gabon)",
    "slug": "ga",
    "iso_a2": "GA",
    "iso_a3": "GAB",
    "name_ko": "가봉",
    "name_en": "Gabon",
    "aliases": "GA, GAB, Gabon",
    "short_description": "",
    "flag_image": ""
  }
},
{
  "model": "blog.country",
  "pk": 145,
  "fields": {
    "name": "니제르(Niger)",
    "slug": "ne",
    "iso_a2": "NE",
    "iso_a3": "NER",
    "name_ko": "니제르",
    "name_en": "Niger",
    "aliases": "NE, NER, Niger",
    "short_description": "",
    "flag_image": ""
  }
},
{
  "model": "blog.country",
  "pk": 146,
  "fields": {
    "name": "부르키나파소(Burkina Faso)",
    "slug": "bf",
    "iso_a2": "BF",
    "iso_a3": "BFA",
    "name_ko": "부르키나파소",
    "name_en": "Burkina Faso",
    "aliases": "BF, BFA, Burkina Faso",
    "short_description": "",
    "flag_image": ""
  }
},
{
  "model": "blog.country",
  "pk": 147,
  "fields": {
    "name": "토고(Togo)",
    "slug": "tg",
    "iso_a2": "TG",
    "iso_a3": "TGO",
    "name_ko": "토고",
    "name_en": "Togo",
    "aliases": "TG, TGO, Togo",
    "short_description": "",
    "flag_image": ""
  }
},
{
  "model": "blog.country",
  "pk": 148,
  "fields": {
    "name": "가나(Ghana)",
    "slug": "gh",
    "iso_a2": "GH",
    "iso_a3": "GHA",
    "name_ko": "가나",
    "name_en": "Ghana",
    "aliases": "GH, GHA, Ghana",
    "short_description": "",
    "flag_image": ""
  }
},
{
  "model": "blog.country",
  "pk": 149,
  "fields": {
    "name": "기니비사우(Guinea-Bissau)",
    "slug": "gw",
    "iso_a2": "GW",
    "iso_a3": "GNB",
    "name_ko": "기니비사우",
    "name_en": "Guinea-Bissau",
    "aliases": "GNB, GW, Guinea-Bissau",
    "short_description": "",
    "flag_image": ""
  }
},
{
  "model": "blog.country",
  "pk": 150,
  "fields": {
    "name": "지브롤터(Gibraltar)",
    "slug": "gi",
    "iso_a2": "GI",
    "iso_a3": "GIB",
    "name_ko": "지브롤터",
    "name_en": "Gibraltar",
    "aliases": "GI, GIB, Gibraltar",
    "short_description": "",
    "flag_image": ""
  }
},
{
  "model": "blog.country",
  "pk": 151,
  "fields": {
    "name": "미국(United States)",
    "slug": "us",
    "iso_a2": "US",
    "iso_a3": "USA",
    "name_ko": "미국",
    "name_en": "United States of America",
    "aliases": "US, USA, United States of America",
    "short_description": "",
    "flag_image": ""
  }
},
{
  "model": "blog.country",
  "pk": 152,
  "fields": {
    "name": "캐나다(Canada)",
    "slug": "ca",
    "iso_a2": "CA",
    "iso_a3": "CAN",
    "name_ko": "캐나다",
    "name_en": "Canada",
    "aliases": "CA, CAN, Canada",
    "short_description": "",
    "flag_image": ""
  }
},
{
  "model": "blog.country",
  "pk": 153,
  "fields": {
    "name": "멕시코(Mexico)",
    "slug": "mx",
    "iso_a2": "MX",
    "iso_a3": "MEX",
    "name_ko": "멕시코",
    "name_en": "Mexico",
    "aliases": "MEX, MX, Mexico",
    "short_description": "",
    "flag_image": ""
  }
},
{
  "model": "blog.country",
  "pk": 154,
  "fields": {
    "name": "벨리즈(Belize)",
    "slug": "bz",
    "iso_a2": "BZ",
    "iso_a3": "BLZ",
    "name_ko": "벨리즈",
    "name_en": "Belize",
    "aliases": "BLZ, BZ, Belize",
    "short_description": "",
    "flag_image": ""
  }
},
{
  "model": "blog.country",
  "pk": 155,
  "fields": {
    "name": "파나마(Panama)",
    "slug": "pa",
    "iso_a2": "PA",
    "iso_a3": "PAN",
    "name_ko": "파나마",
    "name_en": "Panama",
    "aliases": "PA, PAN, Panama",
    "short_description": "",
    "flag_image": ""
  }
},
{
  "model": "blog.country",
  "pk": 156,
  "fields": {
    "name": "베네수엘라(Venezuela)",
    "slug": "ve",
    "iso_a2": "VE",
    "iso_a3": "VEN",
    "name_ko": "베네수엘라",
    "name_en": "Venezuela",
    "aliases": "VE, VEN, Venezuela",
    "short_description": "",
    "flag_image": ""
  }
},
{
  "model": "blog.country",
  "pk": 157,
  "fields": {
    "name": "파푸아뉴기니(Papua New Guinea)",
    "slug": "pg",
    "iso_a2": "PG",
    "iso_a3": "PNG",
    "name_ko": "파푸아뉴기니",
    "name_en": "Papua New Guinea",
    "aliases": "PG, PNG, Papua New Guinea",
    "short_description": "",
    "flag_image": ""
  }
},
{
  "model": "blog.country",
  "pk": 158,
  "fields": {
    "name": "이집트(Egypt)",
    "slug": "eg",
    "iso_a2": "EG",
    "iso_a3": "EGY",
    "name_ko": "이집트",
    "name_en": "Egypt",
    "aliases": "EG, EGY, Egypt",
    "short_description": "",
    "flag_image": ""
  }
},
{
  "model": "blog.country",
  "pk": 159,
  "fields": {
    "name": "예멘(Yemen)",
    "slug": "ye",
    "iso_a2": "YE",
    "iso_a3": "YEM",
    "name_ko": "예멘",
    "name_en": "Yemen",
    "aliases": "YE, YEM, Yemen",
    "short_description": "",
    "flag_image": ""
  }
},
{
  "model": "blog.country",
  "pk": 160,
  "fields": {
    "name": "모리타니(Mauritania)",
    "slug": "mr",
    "iso_a2": "MR",
    "iso_a3": "MRT",
    "name_ko": "모리타니",
    "name_en": "Mauritania",
    "aliases": "MR, MRT, Mauritania",
    "short_description": "",
    "flag_image": ""
  }
},
{
  "model": "blog.country",
  "pk": 161,
  "fields": {
    "name": "적도 기니(Equatorial Guinea)",
    "slug": "gq",
    "iso_a2": "GQ",
    "iso_a3": "GNQ",
    "name_ko": "적도 기니",
    "name_en": "Equatorial Guinea",
    "aliases": "Equatorial Guinea, GNQ, GQ",
    "short_description": "",
    "flag_image": ""
  }
},
{
  "model": "blog.country",
  "pk": 162,
  "fields": {
    "name": "감비아(Gambia)",
    "slug": "gm",
    "iso_a2": "GM",
    "iso_a3": "GMB",
    "name_ko": "감비아",
    "name_en": "Gambia",
    "aliases": "GM, GMB, Gambia",
    "short_description": "",
    "flag_image": ""
  }
},
{
  "model": "blog.country",
  "pk": 163,
  "fields": {
    "name": "홍콩(중국 특별행정구)(Hong Kong SAR China)",
    "slug": "hk",
    "iso_a2": "HK",
    "iso_a3": "HKG",
    "name_ko": "홍콩(중국 특별행정구)",
    "name_en": "Hong Kong S.A.R.",
    "aliases": "HK, HKG, Hong Kong S.A.R.",
    "short_description": "",
    "flag_image": ""
  }
},
{
  "model": "blog.country",
  "pk": 164,
  "fields": {
    "name": "바티칸 시국(Vatican City)",
    "slug": "va",
    "iso_a2": "VA",
    "iso_a3": "VAT",
    "name_ko": "바티칸 시국",
    "name_en": "Vatican",
    "aliases": "VA, VAT, Vatican",
    "short_description": "",
    "flag_image": ""
  }
},
{
  "model": "blog.country",
  "pk": 165,
  "fields": {
    "name": "남극 대륙(Antarctica)",
    "slug": "aq",
    "iso_a2": "AQ",
    "iso_a3": "ATA",
    "name_ko": "남극 대륙",
    "name_en": "Antarctica",
    "aliases": "AQ, ATA, Antarctica",
    "short_description": "",
    "flag_image": ""
  }
},
{
  "model": "blog.country",
  "pk": 166,
  "fields": {
    "name": "오스트레일리아(Australia)",
    "slug": "au",
    "iso_a2": "AU",
    "iso_a3": "AUS",
    "name_ko": "오스트레일리아",
    "name_en": "Australia",
    "aliases": "AU, AUS, Australia",
    "short_description": "",
    "flag_image": ""
  }
},
{
  "model": "blog.country",
  "pk": 167,
  "fields": {
    "name": "그린란드(Greenland)",
    "slug": "gl",
    "iso_a2": "GL",
    "iso_a3": "GRL",
    "name_ko": "그린란드",
    "name_en": "Greenland",
    "aliases": "GL, GRL, Greenland",
    "short_description": "",
    "flag_image": ""
  }
},
{
  "model": "blog.country",
  "pk": 168,
  "fields": {
    "name": "피지(Fiji)",
    "slug": "fj",
    "iso_a2": "FJ",
    "iso_a3": "FJI",
    "name_ko": "피지",
    "name_en": "Fiji",
    "aliases": "FJ, FJI, Fiji",
    "short_description": "",
    "flag_image": ""
  }
},
{
  "model": "blog.country",
  "pk": 169,
  "fields": {
    "name": "뉴질랜드(New Zealand)",
    "slug": "nz",
    "iso_a2": "NZ",
    "iso_a3": "NZL",
    "name_ko": "뉴질랜드",
    "name_en": "New Zealand",
    "aliases": "NZ, NZL, New Zealand",
    "short_description": "",
    "flag_image": ""
  }
},
{
  "model": "blog.country",
  "pk": 170,
  "fields": {
    "name": "뉴칼레도니아(New Caledonia)",
    "slug": "nc",
    "iso_a2": "NC",
    "iso_a3": "NCL",
    "name_ko": "뉴칼레도니아",
    "name_en": "New Caledonia",
    "aliases": "NC, NCL, New Caledonia",
    "short_description": "",
    "flag_image": ""
  }
},
{
  "model": "blog.country",
  "pk": 171,
  "fields": {
    "name": "마다가스카르(Madagascar)",
    "slug": "mg",
    "iso_a2": "MG",
    "iso_a3": "MDG",
    "name_ko": "마다가스카르",
    "name_en": "Madagascar",
    "aliases": "MDG, MG, Madagascar",
    "short_description": "",
    "flag_image": ""
  }
},
{
  "model": "blog.country",
  "pk": 172,
  "fields": {
    "name": "필리핀(Philippines)",
    "slug": "ph",
    "iso_a2": "PH",
    "iso_a3": "PHL",
    "name_ko": "필리핀",
    "name_en": "Philippines",
    "aliases": "PH, PHL, Philippines",
    "short_description": "",
    "flag_image": ""
  }
},
{
  "model": "blog.country",
  "pk": 173,
  "fields": {
    "name": "스리랑카(Sri Lanka)",
    "slug": "lk",
    "iso_a2": "LK",
    "iso_a3": "LKA",
    "name_ko": "스리랑카",
    "name_en": "Sri Lanka",
    "aliases": "LK, LKA, Sri Lanka",
    "short_description": "",
    "flag_image": ""
  }
},
{
  "model": "blog.country",
  "pk": 174,
  "fields": {
    "name": "퀴라소(Curaçao)",
    "slug": "cw",
    "iso_a2": "CW",
    "iso_a3": "CUW",
    "name_ko": "퀴라소",
    "name_en": "Curaçao",
    "aliases": "CUW, CW, Curaçao",
    "short_description": "",
    "flag_image": ""
  }
},
{
  "model": "blog.country",
  "pk": 175,
  "fields": {
    "name": "아루바(Aruba)",
    "slug": "aw",
    "iso_a2": "AW",
    "iso_a3": "ABW",
    "name_ko": "아루바",
    "name_en": "Aruba",
    "aliases": "ABW, AW, Aruba",
    "short_description": "",
    "flag_image": ""
  }
},
{
  "model": "blog.country",
  "pk": 176,
  "fields": {
    "name": "바하마(Bahamas)",
    "slug": "bs",
    "iso_a2": "BS",
    "iso_a3": "BHS",
    "name_ko": "바하마",
    "name_en": "The Bahamas",
    "aliases": "BHS, BS, The Bahamas",
    "short_description": "",
    "flag_image": ""
  }
},
{
  "model": "blog.country",
  "pk": 177,
  "fields": {
    "name": "터크스 케이커스 제도(Turks & Caicos Islands)",
    "slug": "tc",
    "iso_a2": "TC",
    "iso_a3": "TCA",
    "name_ko": "터크스 케이커스 제도",
    "name_en": "Turks and Caicos Islands",
    "aliases": "TC, TCA, Turks and Caicos Islands",
    "short_description": "",
    "flag_image": ""
  }
},
{
  "model": "blog.country",
  "pk": 178,
  "fields": {
    "name": "Taiwan",
    "slug": "cn-tw",
    "iso_a2": "TW",
    "iso_a3": "TWN",
    "name_ko": "",
    "name_en": "Taiwan",
    "aliases": "CN-TW, TWN, Taiwan",
    "short_description": "",
    "flag_image": ""
  }
},
{
  "model": "blog.country",
  "pk": 179,
  "fields": {
    "name": "일본(Japan)",
    "slug": "jp",
    "iso_a2": "JP",
    "iso_a3": "JPN",
    "name_ko": "일본",
    "name_en": "Japan",
    "aliases": "JP, JPN, Japan",
    "short_description": "",
    "flag_image": ""
  }
},
{
  "model": "blog.country",
  "pk": 180,
  "fields": {
    "name": "생피에르 미클롱(St. Pierre & Miquelon)",
    "slug": "pm",
    "iso_a2": "PM",
    "iso_a3": "SPM",
    "name_ko": "생피에르 미클롱",
    "name_en": "Saint Pierre and Miquelon",
    "aliases": "PM, SPM, Saint Pierre and Miquelon",
    "short_description": "",
    "flag_image": ""
  }
},
{
  "model": "blog.country",
  "pk": 181,
  "fields": {
    "name": "아이슬란드(Iceland)",
    "slug": "is",
    "iso_a2": "IS",
    "iso_a3": "ISL",
    "name_ko": "아이슬란드",
    "name_en": "Iceland",
    "aliases": "IS, ISL, Iceland",
    "short_description": "",
    "flag_image": ""
  }
},
{
  "model": "blog.country",
  "pk": 182,
  "fields": {
    "name": "핏케언 제도(Pitcairn Islands)",
    "slug": "pn",
    "iso_a2": "PN",
    "iso_a3": "PCN",
    "name_ko": "핏케언 제도",
    "name_en": "Pitcairn Islands",
    "aliases": "PCN, PN, Pitcairn Islands",
    "short_description": "",
    "flag_image": ""
  }
},
{
  "model": "blog.country",
  "pk": 183,
  "fields": {
    "name": "프랑스령 폴리네시아(French Polynesia)",
    "slug": "pf",
    "iso_a2": "PF",
    "iso_a3": "PYF",
    "name_ko": "프랑스령 폴리네시아",
    "name_en": "French Polynesia",
    "aliases": "French Polynesia, PF, PYF",
    "short_description": "",
    "flag_image": ""
  }
},
{
  "model": "blog.country",
  "pk": 184,
  "fields": {
    "name": "프랑스령 남방 지역(French Southern Territories)",
    "slug": "tf",
    "iso_a2": "TF",
    "iso_a3": "ATF",
    "name_ko": "프랑스령 남방 지역",
    "name_en": "French Southern and Antarctic Lands",
    "aliases": "ATF, French Southern and Antarctic Lands, TF",
    "short_description": "",
    "flag_image": ""
  }
},
{
  "model": "blog.country",
  "pk": 185,
  "fields": {
    "name": "세이셸(Seychelles)",
    "slug": "sc",
    "iso_a2": "SC",
    "iso_a3": "SYC",
    "name_ko": "세이셸",
    "name_en": "Seychelles",
    "aliases": "SC, SYC, Seychelles",
    "short_description": "",
    "flag_image": ""
  }
},
{
  "model": "blog.country",
  "pk": 186,
  "fields": {
    "name": "키리바시(Kiribati)",
    "slug": "ki",
    "iso_a2": "KI",
    "iso_a3": "KIR",
    "name_ko": "키리바시",
    "name_en": "Kiribati",
    "aliases": "KI, KIR, Kiribati",
    "short_description": "",
    "flag_image": ""
  }
},
{
  "model": "blog.country",
  "pk": 187,
  "fields": {
    "name": "마셜 제도(Marshall Islands)",
    "slug": "mh",
    "iso_a2": "MH",
    "iso_a3": "MHL",
    "name_ko": "마셜 제도",
    "name_en": "Marshall Islands",
    "aliases": "MH, MHL, Marshall Islands",
    "short_description": "",
    "flag_image": ""
  }
},
{
  "model": "blog.country",
  "pk": 188,
  "fields": {
    "name": "트리니다드 토바고(Trinidad & Tobago)",
    "slug": "tt",
    "iso_a2": "TT",
    "iso_a3": "TTO",
    "name_ko": "트리니다드 토바고",
    "name_en": "Trinidad and Tobago",
    "aliases": "TT, TTO, Trinidad and Tobago",
    "short_description": "",
    "flag_image": ""
  }
},
{
  "model": "blog.country",
  "pk": 189,
  "fields": {
    "name": "그레나다(Grenada)",
    "slug": "gd",
    "iso_a2": "GD",
    "iso_a3": "GRD",
    "name_ko": "그레나다",
    "name_en": "Grenada",
    "aliases": "GD, GRD, Grenada",
    "short_description": "",
    "flag_image": ""
  }
},
{
  "model": "blog.country",
  "pk": 190,
  "fields": {
    "name": "세인트빈센트그레나딘(St. Vincent & Grenadines)",
    "slug": "vc",
    "iso_a2": "VC",
    "iso_a3": "VCT",
    "name_ko": "세인트빈센트그레나딘",
    "name_en": "Saint Vincent and the Grenadines",
    "aliases": "Saint Vincent and the Grenadines, VC, VCT",
    "short_description": "",
    "flag_image": ""
  }
},
{
  "model": "blog.country",
  "pk": 191,
  "fields": {
    "name": "바베이도스(Barbados)",
    "slug": "bb",
    "iso_a2": "BB",
    "iso_a3": "BRB",
    "name_ko": "바베이도스",
    "name_en": "Barbados",
    "aliases": "BB, BRB, Barbados",
    "short_description": "",
    "flag_image": ""
  }
},
{
  "model": "blog.country",
  "pk": 192,
  "fields": {
    "name": "세인트루시아(St. Lucia)",
    "slug": "lc",
    "iso_a2": "LC",
    "iso_a3": "LCA",
    "name_ko": "세인트루시아",
    "name_en": "Saint Lucia",
    "aliases": "LC, LCA, Saint Lucia",
    "short_description": "",
    "flag_image": ""
  }
},
{
  "model": "blog.country",
  "pk": 193,
  "fields": {
    "name": "도미니카(Dominica)",
    "slug": "dm",
    "iso_a2": "DM",
    "iso_a3": "DMA",
    "name_ko": "도미니카",
    "name_en": "Dominica",
    "aliases": "DM, DMA, Dominica",
    "short_description": "",
    "flag_image": ""
  }
},
{
  "model": "blog.country",
  "pk": 194,
  "fields": {
    "name": "미국령 해외 제도(U.S. Outlying Islands)",
    "slug": "um",
    "iso_a2": "UM",
    "iso_a3": "UMI",
    "name_ko": "미국령 해외 제도",
    "name_en": "United States Minor Outlying Islands",
    "aliases": "UM, UMI, United States Minor Outlying Islands",
    "short_description": "",
    "flag_image": ""
  }
},
{
  "model": "blog.country",
  "pk": 195,
  "fields": {
    "name": "몬트세라트(Montserrat)",
    "slug": "ms",
    "iso_a2": "MS",
    "iso_a3": "MSR",
    "name_ko": "몬트세라트",
    "name_en": "Montserrat",
    "aliases": "MS, MSR, Montserrat",
    "short_description": "",
    "flag_image": ""
  }
},
{
  "model": "blog.country",
  "pk": 196,
  "fields": {
    "name": "앤티가 바부다(Antigua & Barbuda)",
    "slug": "ag",
    "iso_a2": "AG",
    "iso_a3": "ATG",
    "name_ko": "앤티가 바부다",
    "name_en": "Antigua and Barbuda",
    "aliases": "AG, ATG, Antigua and Barbuda",
    "short_description": "",
    "flag_image": ""
  }
},
{
  "model": "blog.country",
  "pk": 197,
  "fields": {
    "name": "세인트키츠 네비스(St. Kitts & Nevis)",
    "slug": "kn",
    "iso_a2": "KN",
    "iso_a3": "KNA",
    "name_ko": "세인트키츠 네비스",
    "name_en": "Saint Kitts and Nevis",
    "aliases": "KN, KNA, Saint Kitts and Nevis",
    "short_description": "",
    "flag_image": ""
  }
},
{
  "model": "blog.country",
  "pk": 198,
  "fields": {
    "name": "미국령 버진아일랜드(U.S. Virgin Islands)",
    "slug": "vi",
    "iso_a2": "VI",
    "iso_a3": "VIR",
    "name_ko": "미국령 버진아일랜드",
    "name_en": "United States Virgin Islands",
    "aliases": "United States Virgin Islands, VI, VIR",
    "short_description": "",
    "flag_image": ""
  }
},
{
  "model": "blog.country",
  "pk": 199,
  "fields": {
    "name": "생바르텔레미(St. Barthélemy)",
    "slug": "bl",
    "iso_a2": "BL",
    "iso_a3": "BLM",
    "name_ko": "생바르텔레미",
    "name_en": "Saint Barthelemy",
    "aliases": "BL, BLM, Saint Barthelemy",
    "short_description": "",
    "flag_image": ""
  }
},
{
  "model": "blog.country",
  "pk": 200,
  "fields": {
    "name": "푸에르토리코(Puerto Rico)",
    "slug": "pr",
    "iso_a2": "PR",
    "iso_a3": "PRI",
    "name_ko": "푸에르토리코",
    "name_en": "Puerto Rico",
    "aliases": "PR, PRI, Puerto Rico",
    "short_description": "",
    "flag_image": ""
  }
},
{
  "model": "blog.country",
  "pk": 201,
  "fields": {
    "name": "앵귈라(Anguilla)",
    "slug": "ai",
    "iso_a2": "AI",
    "iso_a3": "AIA",
    "name_ko": "앵귈라",
    "name_en": "Anguilla",
    "aliases": "AI, AIA, Anguilla",
    "short_description": "",
    "flag_image": ""
  }
},
{
  "model": "blog.country",
  "pk": 202,
  "fields": {
    "name": "영국령 버진아일랜드(British Virgin Islands)",
    "slug": "vg",
    "iso_a2": "VG",
    "iso_a3": "VGB",
    "name_ko": "영국령 버진아일랜드",
    "name_en": "British Virgin Islands",
    "aliases": "British Virgin Islands, VG, VGB",
    "short_description": "",
    "flag_image": ""
  }
},
{
  "model": "blog.country",
  "pk": 203,
  "fields": {
    "name": "자메이카(Jamaica)",
    "slug": "jm",
    "iso_a2": "JM",
    "iso_a3": "JAM",
    "name_ko": "자메이카",
    "name_en": "Jamaica",
    "aliases": "JAM, JM, Jamaica",
    "short_description": "",
    "flag_image": ""
  }
},
{
  "model": "blog.country",
  "pk": 204,
  "fields": {
    "name": "케이맨 제도(Cayman Islands)",
    "slug": "ky",
    "iso_a2": "KY",
    "iso_a3": "CYM",
    "name_ko": "케이맨 제도",
    "name_en": "Cayman Islands",
    "aliases": "CYM, Cayman Islands, KY",
    "short_description": "",
    "flag_image": ""
  }
},
{
  "model": "blog.country",
  "pk": 205,
  "fields": {
    "name": "버뮤다(Bermuda)",
    "slug": "bm",
    "iso_a2": "BM",
    "iso_a3": "BMU",
    "name_ko": "버뮤다",
    "name_en": "Bermuda",
    "aliases": "BM, BMU, Bermuda",
    "short_description": "",
    "flag_image": ""
  }
},
{
  "model": "blog.country",
  "pk": 206,
  "fields": {
    "name": "허드 맥도널드 제도(Heard & McDonald Islands)",
    "slug": "hm",
    "iso_a2": "HM",
    "iso_a3": "HMD",
    "name_ko": "허드 맥도널드 제도",
    "name_en": "Heard Island and McDonald Islands",
    "aliases": "HM, HMD, Heard Island and McDonald Islands",
    "short_description": "",
    "flag_image": ""
  }
},
{
  "model": "blog.country",
  "pk": 207,
  "fields": {
    "name": "세인트헬레나(St. Helena)",
    "slug": "sh",
    "iso_a2": "SH",
    "iso_a3": "SHN",
    "name_ko": "세인트헬레나",
    "name_en": "Saint Helena",
    "aliases": "SH, SHN, Saint Helena",
    "short_description": "",
    "flag_image": ""
  }
},
{
  "model": "blog.country",
  "pk": 208,
  "fields": {
    "name": "모리셔스(Mauritius)",
    "slug": "mu",
    "iso_a2": "MU",
    "iso_a3": "MUS",
    "name_ko": "모리셔스",
    "name_en": "Mauritius",
    "aliases": "MU, MUS, Mauritius",
    "short_description": "",
    "flag_image": ""
  }
},
{
  "model": "blog.country",
  "pk": 209,
  "fields": {
    "name": "코모로(Comoros)",
    "slug": "km",
    "iso_a2": "KM",
    "iso_a3": "COM",
    "name_ko": "코모로",
    "name_en": "Comoros",
    "aliases": "COM, Comoros, KM",
    "short_description": "",
    "flag_image": ""
  }
},
{
  "model": "blog.country",
  "pk": 210,
  "fields": {
    "name": "상투메 프린시페(São Tomé & Príncipe)",
    "slug": "st",
    "iso_a2": "ST",
    "iso_a3": "STP",
    "name_ko": "상투메 프린시페",
    "name_en": "São Tomé and Principe",
    "aliases": "ST, STP, São Tomé and Principe",
    "short_description": "",
    "flag_image": ""
  }
},
{
  "model": "blog.country",
  "pk": 211,
  "fields": {
    "name": "카보베르데(Cape Verde)",
    "slug": "cv",
    "iso_a2": "CV",
    "iso_a3": "CPV",
    "name_ko": "카보베르데",
    "name_en": "Cabo Verde",
    "aliases": "CPV, CV, Cabo Verde",
    "short_description": "",
    "flag_image": ""
  }
},
{
  "model": "blog.country",
  "pk": 212,
  "fields": {
    "name": "몰타(Malta)",
    "slug": "mt",
    "iso_a2": "MT",
    "iso_a3": "MLT",
    "name_ko": "몰타",
    "name_en": "Malta",
    "aliases": "MLT, MT, Malta",
    "short_description": "",
    "flag_image": ""
  }
},
{
  "model": "blog.country",
  "pk": 213,
  "fields": {
    "name": "저지(Jersey)",
    "slug": "je",
    "iso_a2": "JE",
    "iso_a3": "JEY",
    "name_ko": "저지",
    "name_en": "Jersey",
    "aliases": "JE, JEY, Jersey",
    "short_description": "",
    "flag_image": ""
  }
},
{
  "model": "blog.country",
  "pk": 214,
  "fields": {
    "name": "건지(Guernsey)",
    "slug": "gg",
    "iso_a2": "GG",
    "iso_a3": "GGY",
    "name_ko": "건지",
    "name_en": "Guernsey",
    "aliases": "GG, GGY, Guernsey",
    "short_description": "",
    "flag_image": ""
  }
},
{
  "model": "blog.country",
  "pk": 215,
  "fields": {
    "name": "맨섬(Isle of Man)",
    "slug": "im",
    "iso_a2": "IM",
    "iso_a3": "IMN",
    "name_ko": "맨섬",
    "name_en": "Isle of Man",
    "aliases": "IM, IMN, Isle of Man",
    "short_description": "",
    "flag_image": ""
  }
},
{
  "model": "blog.country",
  "pk": 216,
  "fields": {
    "name": "올란드 제도(Åland Islands)",
    "slug": "ax",
    "iso_a2": "AX",
    "iso_a3": "ALA",
    "name_ko": "올란드 제도",
    "name_en": "Aland",
    "aliases": "ALA, AX, Aland",
    "short_description": "",
    "flag_image": ""
  }
},
{
  "model": "blog.country",
  "pk": 217,
  "fields": {
    "name": "페로 제도(Faroe Islands)",
    "slug": "fo",
    "iso_a2": "FO",
    "iso_a3": "FRO",
    "name_ko": "페로 제도",
    "name_en": "Faroe Islands",
    "aliases": "FO, FRO, Faroe Islands",
    "short_description": "",
    "flag_image": ""
  }
},
{
  "model": "blog.country",
  "pk": 218,
  "fields": {
    "name": "영국령 인도양 지역(British Indian Ocean Territory)",
    "slug": "io",
    "iso_a2": "IO",
    "iso_a3": "IOT",
    "name_ko": "영국령 인도양 지역",
    "name_en": "British Indian Ocean Territory",
    "aliases": "British Indian Ocean Territory, IO, IOT",
    "short_description": "",
    "flag_image": ""
  }
},
{
  "model": "blog.country",
  "pk": 219,
  "fields": {
    "name": "싱가포르(Singapore)",
    "slug": "sg",
    "iso_a2": "SG",
    "iso_a3": "SGP",
    "name_ko": "싱가포르",
    "name_en": "Singapore",
    "aliases": "SG, SGP, Singapore",
    "short_description": "",
    "flag_image": ""
  }
},
{
  "model": "blog.country",
  "pk": 220,
  "fields": {
    "name": "노퍽섬(Norfolk Island)",
    "slug": "nf",
    "iso_a2": "NF",
    "iso_a3": "NFK",
    "name_ko": "노퍽섬",
    "name_en": "Norfolk Island",
    "aliases": "NF, NFK, Norfolk Island",
    "short_description": "",
    "flag_image": ""
  }
},
{
  "model": "blog.country",
  "pk": 221,
  "fields": {
    "name": "쿡 제도(Cook Islands)",
    "slug": "ck",
    "iso_a2": "CK",
    "iso_a3": "COK",
    "name_ko": "쿡 제도",
    "name_en": "Cook Islands",
    "aliases": "CK, COK, Cook Islands",
    "short_description": "",
    "flag_image": ""
  }
},
{
  "model": "blog.country",
  "pk": 222,
  "fields": {
    "name": "통가(Tonga)",
    "slug": "to",
    "iso_a2": "TO",
    "iso_a3": "TON",
    "name_ko": "통가",
    "name_en": "Tonga",
    "aliases": "TO, TON, Tonga",
    "short_description": "",
    "flag_image": ""
  }
},
{
  "model": "blog.country",
  "pk": 223,
  "fields": {
    "name": "왈리스-푸투나 제도(Wallis & Futuna)",
    "slug": "wf",
    "iso_a2": "WF",
    "iso_a3": "WLF",
    "name_ko": "왈리스-푸투나 제도",
    "name_en": "Wallis and Futuna",
    "aliases": "WF, WLF, Wallis and Futuna",
    "short_description": "",
    "flag_image": ""
  }
},
{
  "model": "blog.country",
  "pk": 224,
  "fields": {
    "name": "사모아(Samoa)",
    "slug": "ws",
    "iso_a2": "WS",
    "iso_a3": "WSM",
    "name_ko": "사모아",
    "name_en": "Samoa",
    "aliases": "Samoa, WS, WSM",
    "short_description": "",
    "flag_image": ""
  }
},
{
  "model": "blog.country",
  "pk": 225,
  "fields": {
    "name": "솔로몬 제도(Solomon Islands)",
    "slug": "sb",
    "iso_a2": "SB",
    "iso_a3": "SLB",
    "name_ko": "솔로몬 제도",
    "name_en": "Solomon Islands",
    "aliases": "SB, SLB, Solomon Islands, Solomon Is.",
    "short_description": "",
    "flag_image": ""
  }
},
{
  "model": "blog.country",
  "pk": 226,
  "fields": {
    "name": "투발루(Tuvalu)",
    "slug": "tv",
    "iso_a2": "TV",
    "iso_a3": "TUV",
    "name_ko": "투발루",
    "name_en": "Tuvalu",
    "aliases": "TUV, TV, Tuvalu",
    "short_description": "",
    "flag_image": ""
  }
},
{
  "model": "blog.country",
  "pk": 227,
  "fields": {
    "name": "몰디브(Maldives)",
    "slug": "mv",
    "iso_a2": "MV",
    "iso_a3": "MDV",
    "name_ko": "몰디브",
    "name_en": "Maldives",
    "aliases": "MDV, MV, Maldives",
    "short_description": "",
    "flag_image": ""
  }
},
{
  "model": "blog.country",
  "pk": 228,
  "fields": {
    "name": "나우루(Nauru)",
    "slug": "nr",
    "iso_a2": "NR",
    "iso_a3": "NRU",
    "name_ko": "나우루",
    "name_en": "Nauru",
    "aliases": "NR, NRU, Nauru",
    "short_description": "",
    "flag_image": ""
  }
},
{
  "model": "blog.country",
  "pk": 229,
  "fields": {
    "name": "미크로네시아(Micronesia)",
    "slug": "fm",
    "iso_a2": "FM",
    "iso_a3": "FSM",
    "name_ko": "미크로네시아",
    "name_en": "Federated States of Micronesia",
    "aliases": "FM, FSM, Federated States of Micronesia",
    "short_description": "",
    "flag_image": ""
  }
},
{
  "model": "blog.country",
  "pk": 230,
  "fields": {
    "name": "사우스조지아 사우스샌드위치 제도(South Georgia & South Sandwich Islands)",
    "slug": "gs",
    "iso_a2": "GS",
    "iso_a3": "SGS",
    "name_ko": "사우스조지아 사우스샌드위치 제도",
    "name_en": "South Georgia and the Islands",
    "aliases": "GS, SGS, South Georgia and the Islands",
    "short_description": "",
    "flag_image": ""
  }
},
{
  "model": "blog.country",
  "pk": 231,
  "fields": {
    "name": "포클랜드 제도(Falkland Islands)",
    "slug": "fk",
    "iso_a2": "FK",
    "iso_a3": "FLK",
    "name_ko": "포클랜드 제도",
    "name_en": "Falkland Islands",
    "aliases": "FK, FLK, Falkland Islands",
    "short_description": "",
    "flag_image": ""
  }
},
{
  "model": "blog.country",
  "pk": 232,
  "fields": {
    "name": "바누아투(Vanuatu)",
    "slug": "vu",
    "iso_a2": "VU",
    "iso_a3": "VUT",
    "name_ko": "바누아투",
    "name_en": "Vanuatu",
    "aliases": "VU, VUT, Vanuatu",
    "short_description": "",
    "flag_image": ""
  }
},
{
  "model": "blog.country",
  "pk": 233,
  "fields": {
    "name": "니우에(Niue)",
    "slug": "nu",
    "iso_a2": "NU",
    "iso_a3": "NIU",
    "name_ko": "니우에",
    "name_en": "Niue",
    "aliases": "NIU, NU, Niue",
    "short_description": "",
    "flag_image": ""
  }
},
{
  "model": "blog.country",
  "pk": 234,
  "fields": {
    "name": "아메리칸 사모아(American Samoa)",
    "slug": "as",
    "iso_a2": "AS",
    "iso_a3": "ASM",
    "name_ko": "아메리칸 사모아",
    "name_en": "American Samoa",
    "aliases": "AS, ASM, American Samoa",
    "short_description": "",
    "flag_image": ""
  }
},
{
  "model": "blog.country",
  "pk": 235,
  "fields": {
    "name": "팔라우(Palau)",
    "slug": "pw",
    "iso_a2": "PW",
    "iso_a3": "PLW",
    "name_ko": "팔라우",
    "name_en": "Palau",
    "aliases": "PLW, PW, Palau",
    "short_description": "",
    "flag_image": ""
  }
},
{
  "model": "blog.country",
  "pk": 236,
  "fields": {
    "name": "괌(Guam)",
    "slug": "gu",
    "iso_a2": "GU",
    "iso_a3": "GUM",
    "name_ko": "괌",
    "name_en": "Guam",
    "aliases": "GU, GUM, Guam",
    "short_description": "",
    "flag_image": ""
  }
},
{
  "model": "blog.country",
  "pk": 237,
  "fields": {
    "name": "북마리아나제도(Northern Mariana Islands)",
    "slug": "mp",
    "iso_a2": "MP",
    "iso_a3": "MNP",
    "name_ko": "북마리아나제도",
    "name_en": "Northern Mariana Islands",
    "aliases": "MNP, MP, Northern Mariana Islands",
    "short_description": "",
    "flag_image": ""
  }
},
{
  "model": "blog.country",
  "pk": 238,
  "fields": {
    "name": "바레인(Bahrain)",
    "slug": "bh",
    "iso_a2": "BH",
    "iso_a3": "BHR",
    "name_ko": "바레인",
    "name_en": "Bahrain",
    "aliases": "BH, BHR, Bahrain",
    "short_description": "",
    "flag_image": ""
  }
},
{
  "model": "blog.country",
  "pk": 239,
  "fields": {
    "name": "마카오(중국 특별행정구)(Macao SAR China)",
    "slug": "mo",
    "iso_a2": "MO",
    "iso_a3": "MAC",
    "name_ko": "마카오(중국 특별행정구)",
    "name_en": "Macao S.A.R",
    "aliases": "MAC, MO, Macao S.A.R",
    "short_description": "",
    "flag_image": ""
  }
},
{
  "model": "blog.country",
  "pk": 240,
  "fields": {
    "name": "프랑스(France)",
    "slug": "france",
    "iso_a2": "FR",
    "iso_a3": "FRA",
    "name_ko": "프랑스",
    "name_en": "France",
    "aliases": "",
    "short_description": "",
    "flag_image": ""
  }
},
{
  "model": "blog.country",
  "pk": 241,
  "fields": {
    "name": "노르웨이(Norway)",
    "slug": "norway",
    "iso_a2": "NO",
    "iso_a3": "NOR",
    "name_ko": "노르웨이",
    "name_en": "Norway",
    "aliases": "",
    "short_description": "",
    "flag_image": ""
  }
},
{
  "model": "blog.country",
  "pk": 242,
  "fields": {
    "name": "코소보(Kosovo)",
    "slug": "kosovo",
    "iso_a2": "XK",
    "iso_a3": "XKX",
    "name_ko": "코소보",
    "name_en": "Kosovo",
    "aliases": "",
    "short_description": "",
    "flag_image": "media/flags/kosovo_pw2m6z"
  }
},
{
  "model": "blog.post",
  "pk": 22,
  "fields": {
    "country": 73,
    "category": "MY_LOG",
    "title": "세체니 온천 짱 좋아하는 서자",
    "slug": "hungary-travel-01",
    "content": "## 체니체니 세체니\r\n### 온천!!!!\r\n\r\n[[img:10]]\r\n> **세체니** *온천*을 가기 위해 지하철을 탔다. 지하철에서 내리면 보이는 세체니 온천의 외관.\r\n\r\n\r\n\r\n\r\n세체니 온천의 입구!!!\r\n[[img:9]]\r\n\r\n\r\n세체니 온천 내부\r\n[[img:8]]\r\n\r\n\r\n[[img:7]]\r\n\r\n> 세체니 온천 너무너무 좋아하는 서자.\r\n\r\n>빙글빙글 도는데에서 하루 종일 놀았음.\r\n\r\n>근데 서자랑 담센이랑 완전 똑 닮음.",
    "cover_image": "",
    "is_published": true,
    "published_at": "2025-12-23",
    "created_at": "2025-12-21T12:37:03.931Z",
    "updated_at": "2025-12-23T00:24:00.554Z"
  }
},
{
  "model": "blog.post",
  "pk": 23,
  "fields": {
    "country": 25,
    "category": "HISTORY",
    "title": "test",
    "slug": "test",
    "content": "본문 이미지\r\n[[img:5]]\r\n\r\n\r\n\r\n------------------------------------본문 끝",
    "cover_image": "media/posts/images_fvlxoh",
    "is_published": true,
    "published_at": "2025-12-23",
    "created_at": "2025-12-22T10:34:11.145Z",
    "updated_at": "2025-12-22T19:10:08.605Z"
  }
},
{
  "model": "blog.post",
  "pk": 24,
  "fields": {
    "country": 25,
    "category": "TRAVEL",
    "title": "test",
    "slug": "test2",
    "content": "### 슬러그 없이 저장\r\n\r\n\r\nㅇㅇㅇㅇ",
    "cover_image": "",
    "is_published": true,
    "published_at": "2025-12-23",
    "created_at": "2025-12-22T18:29:27.441Z",
    "updated_at": "2025-12-22T19:10:20.574Z"
  }
},
{
  "model": "blog.post",
  "pk": 25,
  "fields": {
    "country": 25,
    "category": "TRAVEL",
    "title": "test",
    "slug": "test-2",
    "content": "slug 없이 저장!",
    "cover_image": "",
    "is_published": true,
    "published_at": "2025-12-23",
    "created_at": "2025-12-22T19:00:35.629Z",
    "updated_at": "2025-12-22T19:10:29.198Z"
  }
},
{
  "model": "blog.post",
  "pk": 26,
  "fields": {
    "country": 25,
    "category": "TRAVEL",
    "title": "슬러그 없이 저장 테스트",
    "slug": "슬러그-없이-저장-테스트",
    "content": "슬럭 없이 저장 테스트 2",
    "cover_image": "",
    "is_published": true,
    "published_at": "2025-12-23",
    "created_at": "2025-12-22T19:01:29.094Z",
    "updated_at": "2025-12-22T19:01:29.094Z"
  }
},
{
  "model": "blog.post",
  "pk": 27,
  "fields": {
    "country": 25,
    "category": "TRAVEL",
    "title": "한글슬러그로저장",
    "slug": "한글슬러그로저장",
    "content": "한글슬러그",
    "cover_image": "",
    "is_published": true,
    "published_at": "2025-12-23",
    "created_at": "2025-12-22T19:04:42.893Z",
    "updated_at": "2025-12-22T19:04:42.893Z"
  }
},
{
  "model": "blog.post",
  "pk": 28,
  "fields": {
    "country": 25,
    "category": "TRAVEL",
    "title": "test",
    "slug": "test-3",
    "content": "img test",
    "cover_image": "",
    "is_published": true,
    "published_at": "2025-12-23",
    "created_at": "2025-12-23T00:31:04.643Z",
    "updated_at": "2025-12-23T00:44:38.460Z"
  }
},
{
  "model": "blog.postimage",
  "pk": 5,
  "fields": {
    "post": 23,
    "image": "media/post_images/백제_지도_icskyn",
    "caption": "",
    "order": 0,
    "created_at": "2025-12-22T10:34:13.088Z"
  }
},
{
  "model": "blog.postimage",
  "pk": 6,
  "fields": {
    "post": 23,
    "image": "media/post_images/common_sxppyi",
    "caption": "",
    "order": 0,
    "created_at": "2025-12-22T10:34:14.078Z"
  }
},
{
  "model": "blog.postimage",
  "pk": 7,
  "fields": {
    "post": 22,
    "image": "media/post_images/onsen_h0blxj",
    "caption": "온천",
    "order": 0,
    "created_at": "2025-12-22T10:47:42.207Z"
  }
},
{
  "model": "blog.postimage",
  "pk": 8,
  "fields": {
    "post": 22,
    "image": "media/post_images/indoor_dhxbth",
    "caption": "내부",
    "order": 10,
    "created_at": "2025-12-22T10:47:43.651Z"
  }
},
{
  "model": "blog.postimage",
  "pk": 9,
  "fields": {
    "post": 22,
    "image": "media/post_images/enterance_jwasym",
    "caption": "입구",
    "order": 20,
    "created_at": "2025-12-22T10:47:44.577Z"
  }
},
{
  "model": "blog.postimage",
  "pk": 10,
  "fields": {
    "post": 22,
    "image": "media/post_images/outside_t1o7dt",
    "caption": "외부",
    "order": 30,
    "created_at": "2025-12-22T10:47:45.248Z"
  }
},
{
  "model": "blog.postimage",
  "pk": 11,
  "fields": {
    "post": 28,
    "image": "media/post_images/onsen_ksu3pw",
    "caption": "",
    "order": 0,
    "created_at": "2025-12-23T00:32:18.209Z"
  }
},
{
  "model": "blog.postimage",
  "pk": 12,
  "fields": {
    "post": 28,
    "image": "media/post_images/indoor_ark40x",
    "caption": "",
    "order": 10,
    "created_at": "2025-12-23T00:32:19.204Z"
  }
},
{
  "model": "blog.postimage",
  "pk": 13,
  "fields": {
    "post": 28,
    "image": "media/post_images/enterance_qbxsdb",
    "caption": "",
    "order": 20,
    "created_at": "2025-12-23T00:32:20.189Z"
  }
},
{
  "model": "blog.postimage",
  "pk": 14,
  "fields": {
    "post": 28,
    "image": "media/post_images/outside_rgvpgn",
    "caption": "",
    "order": 30,
    "created_at": "2025-12-23T00:32:20.881Z"
  }
}
]
